[{"OBJECT_NAME":"STARLINK-35310","OBJECT_ID":"2025-243G","EPOCH":"2026-03-03T20:00:59.945760","MEAN_MOTION":15.30249157,"ECCENTRICITY":0.00016552,"INCLINATION":53.1583,"RA_OF_ASC_NODE":272.7082,"ARG_OF_PERICENTER":137.5309,"MEAN_ANOMALY":222.582,"EPHEMERIS_TYPE":0,"CLASSIFICATION_TYPE":"U","NORAD_CAT_ID":66183,"ELEMENT_SET_NO":999,"REV_AT_EPOCH":1975,"BSTAR":0.0014544303,"MEAN_MOTION_DOT":0.00043033,"MEAN_MOTION_DDOT":0},{"OBJECT_NAME":"STARLINK-35317","OBJECT_ID":"2025-243H","EPOCH":"2026-03-03T19:42:47.136096","MEAN_MOTION":15.30204127,"ECCENTRICITY":0.00010539,"INCLINATION":53.1573,"RA_OF_ASC_NODE":272.6338,"ARG_OF_PERICENTER":86.8738,"MEAN_ANOMALY":273.2383,"EPHEMERIS_TYPE":0,"CLASSIFICATION_TYPE":"U","NORAD_CAT_ID":66184,"ELEMENT_SET_NO":999,"REV_AT_EPOCH":1975,"BSTAR":0.0011973866,"MEAN_MOTION_DOT":0.00035277,"MEAN_MOTION_DDOT":0},{"OBJECT_NAME":"STARLINK-35377","OBJECT_ID":"2025-243J","EPOCH":"2026-03-03T19:57:58.215456","MEAN_MOTION":15.30228999,"ECCENTRICITY":0.00029811,"INCLINATION":53.1576,"RA_OF_ASC_NODE":272.6965,"ARG_OF_PERICENTER":165.3923,"MEAN_ANOMALY":194.7165,"EPHEMERIS_TYPE":0,"CLASSIFICATION_TYPE":"U","NORAD_CAT_ID":66185,"ELEMENT_SET_NO":999,"REV_AT_EPOCH":1975,"BSTAR":0.0013515011,"MEAN_MOTION_DOT":0.00039922,"MEAN_MOTION_DDOT":0},{"OBJECT_NAME":"STARLINK-35365","OBJECT_ID":"2025-243K","EPOCH":"2026-03-03T19:51:54.171648","MEAN_MOTION":15.30206649,"ECCENTRICITY":0.00010942,"INCLINATION":53.1576,"RA_OF_ASC_NODE":272.6739,"ARG_OF_PERICENTER":74.811,"MEAN_ANOMALY":285.3011,"EPHEMERIS_TYPE":0,"CLASSIFICATION_TYPE":"U","NORAD_CAT_ID":66186,"ELEMENT_SET_NO":999,"REV_AT_EPOCH":1975,"BSTAR":0.00092726514,"MEAN_MOTION_DOT":0.0002721,"MEAN_MOTION_DDOT":0},{"OBJECT_NAME":"STARLINK-35350","OBJECT_ID":"2025-243L","EPOCH":"2026-03-03T20:02:32.359200","MEAN_MOTION":15.30214226,"ECCENTRICITY":0.00010403,"INCLINATION":53.158,"RA_OF_ASC_NODE":272.7151,"ARG_OF_PERICENTER":117.23,"MEAN_ANOMALY":242.8807,"EPHEMERIS_TYPE":0,"CLASSIFICATION_TYPE":"U","NORAD_CAT_ID":66187,"ELEMENT_SET_NO":999,"REV_AT_EPOCH":1975,"BSTAR":0.00099786747,"MEAN_MOTION_DOT":0.00029324,"MEAN_MOTION_DDOT":0},{"OBJECT_NAME":"STARLINK-35041","OBJECT_ID":"2025-243M","EPOCH":"2026-03-03T19:38:13.410528","MEAN_MOTION":15.30220776,"ECCENTRICITY":9.493e-5,"INCLINATION":53.1573,"RA_OF_ASC_NODE":272.6098,"ARG_OF_PERICENTER":113.1047,"MEAN_ANOMALY":247.0054,"EPHEMERIS_TYPE":0,"CLASSIFICATION_TYPE":"U","NORAD_CAT_ID":66188,"ELEMENT_SET_NO":999,"REV_AT_EPOCH":1975,"BSTAR":0.0011405396,"MEAN_MOTION_DOT":0.00033595,"MEAN_MOTION_DDOT":0},{"OBJECT_NAME":"STARLINK-34694","OBJECT_ID":"2025-243N","EPOCH":"2026-03-03T19:29:05.574048","MEAN_MOTION":15.30229614,"ECCENTRICITY":4.365e-5,"INCLINATION":53.1572,"RA_OF_ASC_NODE":272.5715,"ARG_OF_PERICENTER":44.7463,"MEAN_ANOMALY":315.3573,"EPHEMERIS_TYPE":0,"CLASSIFICATION_TYPE":"U","NORAD_CAT_ID":66189,"ELEMENT_SET_NO":999,"REV_AT_EPOCH":1975,"BSTAR":0.00098143496,"MEAN_MOTION_DOT":0.00028848,"MEAN_MOTION_DDOT":0},{"OBJECT_NAME":"STARLINK-34863","OBJECT_ID":"2025-243P","EPOCH":"2026-03-03T19:47:20.410656","MEAN_MOTION":15.30222665,"ECCENTRICITY":7.876e-5,"INCLINATION":53.1571,"RA_OF_ASC_NODE":272.6528,"ARG_OF_PERICENTER":114.6544,"MEAN_ANOMALY":245.4539,"EPHEMERIS_TYPE":0,"CLASSIFICATION_TYPE":"U","NORAD_CAT_ID":66190,"ELEMENT_SET_NO":999,"REV_AT_EPOCH":1975,"BSTAR":0.0011054125,"MEAN_MOTION_DOT":0.00032546,"MEAN_MOTION_DDOT":0},{"OBJECT_NAME":"STARLINK-35061","OBJECT_ID":"2025-243Q","EPOCH":"2026-03-03T20:05:34.856736","MEAN_MOTION":15.30201573,"ECCENTRICITY":0.00012809,"INCLINATION":53.1576,"RA_OF_ASC_NODE":272.7307,"ARG_OF_PERICENTER":66.6122,"MEAN_ANOMALY":293.5013,"EPHEMERIS_TYPE":0,"CLASSIFICATION_TYPE":"U","NORAD_CAT_ID":66191,"ELEMENT_SET_NO":999,"REV_AT_EPOCH":1975,"BSTAR":0.0012682655,"MEAN_MOTION_DOT":0.00037394,"MEAN_MOTION_DDOT":0},{"OBJECT_NAME":"STARLINK-34937","OBJECT_ID":"2025-243R","EPOCH":"2026-03-03T20:10:08.139936","MEAN_MOTION":15.30210924,"ECCENTRICITY":0.00010039,"INCLINATION":53.1575,"RA_OF_ASC_NODE":272.7494,"ARG_OF_PERICENTER":94.0798,"MEAN_ANOMALY":266.0318,"EPHEMERIS_TYPE":0,"CLASSIFICATION_TYPE":"U","NORAD_CAT_ID":66192,"ELEMENT_SET_NO":999,"REV_AT_EPOCH":1975,"BSTAR":0.0013183277,"MEAN_MOTION_DOT":0.00038904,"MEAN_MOTION_DDOT":0},{"OBJECT_NAME":"STARLINK-35197","OBJECT_ID":"2025-243S","EPOCH":"2026-03-03T19:10:52.512960","MEAN_MOTION":15.30190962,"ECCENTRICITY":0.00010824,"INCLINATION":53.1569,"RA_OF_ASC_NODE":272.4941,"ARG_OF_PERICENTER":61.7621,"MEAN_ANOMALY":298.3489,"EPHEMERIS_TYPE":0,"CLASSIFICATION_TYPE":"U","NORAD_CAT_ID":66193,"ELEMENT_SET_NO":999,"REV_AT_EPOCH":1975,"BSTAR":0.0005940896,"MEAN_MOTION_DOT":0.00017272,"MEAN_MOTION_DDOT":0},{"OBJECT_NAME":"STARLINK-35374","OBJECT_ID":"2025-243T","EPOCH":"2026-03-03T19:15:25.858368","MEAN_MOTION":15.30202264,"ECCENTRICITY":0.00010779,"INCLINATION":53.1572,"RA_OF_ASC_NODE":272.508,"ARG_OF_PERICENTER":108.5534,"MEAN_ANOMALY":251.5584,"EPHEMERIS_TYPE":0,"CLASSIFICATION_TYPE":"U","NORAD_CAT_ID":66194,"ELEMENT_SET_NO":999,"REV_AT_EPOCH":1975,"BSTAR":0.001048338,"MEAN_MOTION_DOT":0.00030821,"MEAN_MOTION_DDOT":0},{"OBJECT_NAME":"STARLINK-34813","OBJECT_ID":"2025-243U","EPOCH":"2026-03-03T19:19:59.407680","MEAN_MOTION":15.30229582,"ECCENTRICITY":8.144e-5,"INCLINATION":53.1571,"RA_OF_ASC_NODE":272.5292,"ARG_OF_PERICENTER":68.4114,"MEAN_ANOMALY":291.6973,"EPHEMERIS_TYPE":0,"CLASSIFICATION_TYPE":"U","NORAD_CAT_ID":66195,"ELEMENT_SET_NO":999,"REV_AT_EPOCH":1975,"BSTAR":0.0015792615,"MEAN_MOTION_DOT":0.00046752,"MEAN_MOTION_DDOT":0},{"OBJECT_NAME":"STARLINK-35409","OBJECT_ID":"2025-243V","EPOCH":"2026-03-03T19:24:32.868000","MEAN_MOTION":15.30222926,"ECCENTRICITY":0.00010685,"INCLINATION":53.1562,"RA_OF_ASC_NODE":272.5483,"ARG_OF_PERICENTER":114.8525,"MEAN_ANOMALY":245.2587,"EPHEMERIS_TYPE":0,"CLASSIFICATION_TYPE":"U","NORAD_CAT_ID":66196,"ELEMENT_SET_NO":999,"REV_AT_EPOCH":1975,"BSTAR":0.0013124142,"MEAN_MOTION_DOT":0.00038741,"MEAN_MOTION_DDOT":0},{"OBJECT_NAME":"STARLINK-35518","OBJECT_ID":"2025-243X","EPOCH":"2026-03-03T19:33:40.064256","MEAN_MOTION":15.30206365,"ECCENTRICITY":0.00011237,"INCLINATION":53.1571,"RA_OF_ASC_NODE":272.5956,"ARG_OF_PERICENTER":7.1155,"MEAN_ANOMALY":352.9861,"EPHEMERIS_TYPE":0,"CLASSIFICATION_TYPE":"U","NORAD_CAT_ID":66197,"ELEMENT_SET_NO":999,"REV_AT_EPOCH":1975,"BSTAR":0.00090418971,"MEAN_MOTION_DOT":0.00026521,"MEAN_MOTION_DDOT":0},{"OBJECT_NAME":"STARLINK-35259","OBJECT_ID":"2025-243W","EPOCH":"2026-03-03T20:14:41.788608","MEAN_MOTION":15.30209589,"ECCENTRICITY":8.776e-5,"INCLINATION":53.1577,"RA_OF_ASC_NODE":272.767,"ARG_OF_PERICENTER":67.8381,"MEAN_ANOMALY":292.2713,"EPHEMERIS_TYPE":0,"CLASSIFICATION_TYPE":"U","NORAD_CAT_ID":66198,"ELEMENT_SET_NO":999,"REV_AT_EPOCH":1975,"BSTAR":0.0011730316,"MEAN_MOTION_DOT":0.00034555,"MEAN_MOTION_DDOT":0}]
