STARLINK-35310          
1 66183U 25243G   26062.83402715  .00043033  00000+0  14544-2 0  9998
2 66183  53.1583 272.7082 0001655 137.5309 222.5820 15.30249157 19754
STARLINK-35317          
1 66184U 25243H   26062.82137889  .00035277  00000+0  11974-2 0  9990
2 66184  53.1573 272.6338 0001053  86.8738 273.2383 15.30204127 19756
STARLINK-35377          
1 66185U 25243J   26062.83192379  .00039922  00000+0  13515-2 0  9991
2 66185  53.1576 272.6965 0002981 165.3923 194.7165 15.30228999 19754
STARLINK-35365          
1 66186U 25243K   26062.82771032  .00027210  00000+0  92727-3 0  9990
2 66186  53.1576 272.6739 0001094  74.8110 285.3011 15.30206649 19755
STARLINK-35350          
1 66187U 25243L   26062.83509675  .00029324  00000+0  99787-3 0  9995
2 66187  53.1580 272.7151 0001040 117.2300 242.8807 15.30214226 19755
STARLINK-35041          
1 66188U 25243M   26062.81821077  .00033595  00000+0  11405-2 0  9992
2 66188  53.1573 272.6098 0000949 113.1047 247.0054 15.30220776 19755
STARLINK-34694          
1 66189U 25243N   26062.81187007  .00028848  00000+0  98143-3 0  9991
2 66189  53.1572 272.5715 0000436  44.7463 315.3573 15.30229614 19757
STARLINK-34863          
1 66190U 25243P   26062.82454179  .00032546  00000+0  11054-2 0  9996
2 66190  53.1571 272.6528 0000787 114.6544 245.4539 15.30222665 19751
STARLINK-35061          
1 66191U 25243Q   26062.83720899  .00037394  00000+0  12683-2 0  9998
2 66191  53.1576 272.7307 0001280  66.6122 293.5013 15.30201573 19756
STARLINK-34937          
1 66192U 25243R   26062.84037199  .00038904  00000+0  13183-2 0  9998
2 66192  53.1575 272.7494 0001003  94.0798 266.0318 15.30210924 19753
STARLINK-35197          
1 66193U 25243S   26062.79921890  .00017272  00000+0  59409-3 0  9990
2 66193  53.1569 272.4941 0001082  61.7621 298.3489 15.30190962 19750
STARLINK-35374          
1 66194U 25243T   26062.80238262  .00030821  00000+0  10483-2 0  9990
2 66194  53.1572 272.5080 0001077 108.5534 251.5584 15.30202264 19753
STARLINK-34813          
1 66195U 25243U   26062.80554870  .00046752  00000+0  15793-2 0  9996
2 66195  53.1571 272.5292 0000814  68.4114 291.6973 15.30229582 19753
STARLINK-35409          
1 66196U 25243V   26062.80871375  .00038741  00000+0  13124-2 0  9994
2 66196  53.1562 272.5483 0001068 114.8525 245.2587 15.30222926 19751
STARLINK-35518          
1 66197U 25243X   26062.81504704  .00026521  00000+0  90419-3 0  9991
2 66197  53.1571 272.5956 0001123   7.1155 352.9861 15.30206365 19752
STARLINK-35259          
1 66198U 25243W   26062.84353922  .00034555  00000+0  11730-2 0  9993
2 66198  53.1577 272.7670 0000877  67.8381 292.2713 15.30209589 19756
